{"spkid": "20678413", "covariance": {"epoch": "2458673.5", "data": [["1.060337785679094E-13", "-1.395803534484992E-13", "-1.829192905546125E-11", "-4.818987563555196E-12", "-2.202775854145068E-12", "3.04455310991375E-12"], ["-1.395803534484992E-13", "1.837559905811058E-13", "2.407692627526312E-11", "6.339427099037844E-12", "2.902299643707663E-12", "-4.006303498813125E-12"], ["-1.829192905546125E-11", "2.407692627526312E-11", "1.858044805982614E-8", "1.612888916390355E-9", "5.331919388302026E-9", "-7.908317092110391E-10"], ["-4.818987563555196E-12", "6.339427099037844E-12", "1.612888916390355E-9", "1.017006149952857E-9", "-3.530383868676535E-10", "-3.137004476824725E-10"], ["-2.202775854145068E-12", "2.902299643707663E-12", "5.331919388302026E-9", "-3.530383868676535E-10", "2.300182479903869E-9", "2.284774187092995E-12"], ["3.04455310991375E-12", "-4.006303498813125E-12", "-7.908317092110391E-10", "-3.137004476824725E-10", "2.284774187092995E-12", "1.42132108465763E-10"]], "elements": [{"units": null, "value": ".3053376049853053", "title": "eccentricity", "sigma": 3.25628282813255e-07, "name": "e", "label": "e"}, {"units": "au", "value": ".9053114360926184", "title": "perihelion distance", "name": "q", "sigma": 4.28667692485806e-07, "label": "q"}, {"name": "tp", "sigma": 0.00013631011723209, "units": "TDB", "value": "2458891.392394714901", "title": "time of perihelion passage", "label": "tp"}, {"label": "node", "title": "longitude of the ascending node", "value": "110.8878548854498", "units": "deg", "name": "om", "sigma": 3.1890533861208e-05}, {"title": "argument of perihelion", "value": "119.6211782698046", "units": "deg", "sigma": 4.7960217679905e-05, "name": "w", "label": "peri"}, {"units": "deg", "value": "22.7241020307733", "title": "inclination", "sigma": 1.19219171472445e-05, "name": "i", "label": "i"}], "labels": ["e", "q", "tp", "node", "peri", "i"]}, "elements": [{"label": "e", "units": null, "value": ".3052614806857892", "title": "eccentricity", "sigma": "3.2526E-7", "name": "e"}, {"label": "a", "sigma": "8.5592E-9", "name": "a", "title": "semi-major axis", "value": "1.303207999580083", "units": "au"}, {"sigma": "4.2832E-7", "name": "q", "title": "perihelion distance", "value": ".9053887959867016", "units": "au", "label": "q"}, {"title": "inclination; angle with respect to x-y ecliptic plane", "value": "22.72793970079744", "units": "deg", "sigma": "1.1926E-5", "name": "i", "label": "i"}, {"name": "om", "sigma": "3.1892E-5", "units": "deg", "title": "longitude of the ascending node", "value": "110.8531077069979", "label": "node"}, {"label": "peri", "sigma": "4.801E-5", "name": "w", "title": "argument of perihelion", "value": "119.6706818886236", "units": "deg"}, {"label": "M", "sigma": "9.66E-5", "name": "ma", "title": "mean anomaly", "value": "89.7437785057142", "units": "deg"}, {"label": "tp", "name": "tp", "sigma": ".00014518", "units": "TDB", "value": "2461065.036939713890", "title": "time of perihelion passage"}, {"label": "period", "sigma": "5.3534E-6", "name": "per", "title": "sidereal orbital period", "value": "543.3992474463798", "units": "d"}, {"value": ".6624963168273861", "title": "mean motion", "units": "deg/d", "name": "n", "sigma": "6.5267E-9", "label": "n"}, {"label": "Q", "name": "ad", "sigma": "1.1172E-8", "value": "1.701027203173465", "title": "aphelion distance", "units": "au"}], "epoch": "2461200.5"}